{"type": "FeatureCollection", "features": [ {"type": "Feature", "properties": {"norad_id": 34014, "name": "COSMOS 2251 DEB", "group": "cosmos-2251-debris", "lat": 29.768029839445298, "lon": -86.73728854913642, "alt_km": 623.0329925925216, "timestamp": "2025-12-21T09:37:23.048321+00:00", "meta": {"OBJECT_NAME": "COSMOS 2251 DEB", "OBJECT_ID": "1993-036GZ", "EPOCH": "2025-12-21T05:08:14.141184", "MEAN_MOTION": 14.73228686, "ECCENTRICITY": 0.0037409, "INCLINATION": 74.0175, "RA_OF_ASC_NODE": 264.1922, "ARG_OF_PERICENTER": 41.4794, "MEAN_ANOMALY": 78.904, "EPHEMERIS_TYPE": 0, "CLASSIFICATION_TYPE": "U", "NORAD_CAT_ID": 34014, "ELEMENT_SET_NO": 999, "REV_AT_EPOCH": 89428, "BSTAR": 0.00058417, "MEAN_MOTION_DOT": 3.783e-05, "MEAN_MOTION_DDOT": 0}, "tle": {"line1": "1 34014U 93036GZ  25355.21405256  .00003783  00000+0  58417-3 0  9996", "line2": "2 34014  74.0175 264.1922 0037409  41.4794  78.9040 14.73228686894282"}}, "geometry": {"type": "Point", "coordinates": [-86.73728854913642, 29.768029839445298]}}, {"type": "Feature", "properties": {"norad_id": 34015, "name": "COSMOS 2251 DEB", "group": "cosmos-2251-debris", "lat": 67.4840023268402, "lon": -80.83881201600254, "alt_km": 695.2660554160611, "timestamp": "2025-12-21T09:37:23.048331+00:00", "meta": {"OBJECT_NAME": "COSMOS 2251 DEB", "OBJECT_ID": "1993-036HA", "EPOCH": "2025-12-20T18:50:46.114944", "MEAN_MOTION": 14.60348328, "ECCENTRICITY": 0.00209697, "INCLINATION": 74.0238, "RA_OF_ASC_NODE": 144.0536, "ARG_OF_PERICENTER": 240.7045, "MEAN_ANOMALY": 229.9143, "EPHEMERIS_TYPE": 0, "CLASSIFICATION_TYPE": "U", "NORAD_CAT_ID": 34015, "ELEMENT_SET_NO": 999, "REV_AT_EPOCH": 88648, "BSTAR": 0.00094513855, "MEAN_MOTION_DOT": 4.557e-05, "MEAN_MOTION_DDOT": 0}, "tle": {"line1": "1 34015U 93036HA  25354.78525596  .00004557  00000+0  94514-3 0  9996", "line2": "2 34015  74.0238 144.0536 0020969 240.7045 229.9143 14.60348328886483"}}, "geometry": {"type": "Point", "coordinates": [-80.83881201600254, 67.4840023268402]}}, {"type": "Feature", "properties": {"norad_id": 34018, "name": "COSMOS 2251 DEB", "group": "cosmos-2251-debris", "lat": -56.30832125263807, "lon": 51.70923688105986, "alt_km": 1157.8165062547478, "timestamp": "2025-12-21T09:37:23.048341+00:00", "meta": {"OBJECT_NAME": "COSMOS 2251 DEB", "OBJECT_ID": "1993-036HD", "EPOCH": "2025-12-20T15:07:49.156320", "MEAN_MOTION": 13.81080141, "ECCENTRICITY": 0.0263305, "INCLINATION": 73.8781, "RA_OF_ASC_NODE": 78.7244, "ARG_OF_PERICENTER": 113.1007, "MEAN_ANOMALY": 317.8476, "EPHEMERIS_TYPE": 0, "CLASSIFICATION_TYPE": "U", "NORAD_CAT_ID": 34018, "ELEMENT_SET_NO": 999, "REV_AT_EPOCH": 84766, "BSTAR": 0.00025567, "MEAN_MOTION_DOT": 3.3e-06, "MEAN_MOTION_DDOT": 0}, "tle": {"line1": "1 34018U 93036HD  25354.63043005  .00000330  00000+0  25567-3 0  9990", "line2": "2 34018  73.8781  78.7244 0263305 113.1007 317.8476 13.81080141847660"}}, "geometry": {"type": "Point", "coordinates": [51.70923688105986, -56.30832125263807]}}, {"type": "Feature", "properties": {"norad_id": 34019, "name": "COSMOS 2251 DEB", "group": "cosmos-2251-debris", "lat": -73.5809635887144, "lon": -42.79546976959208, "alt_km": 762.0986789702201, "timestamp": "2025-12-21T09:37:23.048351+00:00", "meta": {"OBJECT_NAME": "COSMOS 2251 DEB", "OBJECT_ID": "1993-036HE", "EPOCH": "2025-12-20T02:20:36.590208", "MEAN_MOTION": 14.3396801, "ECCENTRICITY": 0.00624457, "INCLINATION": 73.9534, "RA_OF_ASC_NODE": 37.2082, "ARG_OF_PERICENTER": 217.3454, "MEAN_ANOMALY": 170.1183, "EPHEMERIS_TYPE": 0, "CLASSIFICATION_TYPE": "U", "NORAD_CAT_ID": 34019, "ELEMENT_SET_NO": 999, "REV_AT_EPOCH": 87626, "BSTAR": 0.00054757166, "MEAN_MOTION_DOT": 1.535e-05, "MEAN_MOTION_DDOT": 0}, "tle": {"line1": "1 34019U 93036HE  25354.09764572  .00001535  00000+0  54757-3 0  9991", "line2": "2 34019  73.9534  37.2082 0062445 217.3454 170.1183 14.33968010876264"}}, "geometry": {"type": "Point", "coordinates": [-42.79546976959208, -73.5809635887144]}}, {"type": "Feature", "properties": {"norad_id": 34021, "name": "COSMOS 2251 DEB", "group": "cosmos-2251-debris", "lat": 28.341120395639535, "lon": -75.31505750123138, "alt_km": 728.2610579617549, "timestamp": "2025-12-21T09:37:23.048361+00:00", "meta": {"OBJECT_NAME": "COSMOS 2251 DEB", "OBJECT_ID": "1993-036HG", "EPOCH": "2025-12-20T02:16:22.461888", "MEAN_MOTION": 14.4997182, "ECCENTRICITY": 0.00209719, "INCLINATION": 74.0359, "RA_OF_ASC_NODE": 116.0186, "ARG_OF_PERICENTER": 259.3851, "MEAN_ANOMALY": 275.4022, "EPHEMERIS_TYPE": 0, "CLASSIFICATION_TYPE": "U", "NORAD_CAT_ID": 34021, "ELEMENT_SET_NO": 999, "REV_AT_EPOCH": 88736, "BSTAR": 0.00032124262, "MEAN_MOTION_DOT": 1.219e-05, "MEAN_MOTION_DDOT": 0}, "tle": {"line1": "1 34021U 93036HG  25354.09470442  .00001219  00000+0  32124-3 0  9997", "line2": "2 34021  74.0359 116.0186 0020971 259.3851 275.4022 14.49971820887364"}}, "geometry": {"type": "Point", "coordinates": [-75.31505750123138, 28.341120395639535]}}, {"type": "Feature", "properties": {"norad_id": 34022, "name": "COSMOS 2251 DEB", "group": "cosmos-2251-debris", "lat": -15.038736936547481, "lon": -109.569254343916, "alt_km": 751.486919116599, "timestamp": "2025-12-21T09:37:23.048371+00:00", "meta": {"OBJECT_NAME": "COSMOS 2251 DEB", "OBJECT_ID": "1993-036HH", "EPOCH": "2025-12-21T03:43:12.132192", "MEAN_MOTION": 14.38974611, "ECCENTRICITY": 0.0022987, "INCLINATION": 74.054, "RA_OF_ASC_NODE": 255.2894, "ARG_OF_PERICENTER": 318.8847, "MEAN_ANOMALY": 191.8248, "EPHEMERIS_TYPE": 0, "CLASSIFICATION_TYPE": "U", "NORAD_CAT_ID": 34022, "ELEMENT_SET_NO": 999, "REV_AT_EPOCH": 88316, "BSTAR": 0.00015421, "MEAN_MOTION_DOT": 4.51e-06, "MEAN_MOTION_DDOT": 0}, "tle": {"line1": "1 34022U 93036HH  25355.15500153  .00000451  00000+0  15421-3 0  9997", "line2": "2 34022  74.0540 255.2894 0022987 318.8847 191.8248 14.38974611883168"}}, "geometry": {"type": "Point", "coordinates": [-109.569254343916, -15.038736936547481]}}, {"type": "Feature", "properties": {"norad_id": 34023, "name": "COSMOS 2251 DEB", "group": "cosmos-2251-debris", "lat": -44.21353511495782, "lon": -140.46845644205968, "alt_km": 750.0755203478193, "timestamp": "2025-12-21T09:37:23.048381+00:00", "meta": {"OBJECT_NAME": "COSMOS 2251 DEB", "OBJECT_ID": "1993-036HJ", "EPOCH": "2025-12-21T02:14:19.944096", "MEAN_MOTION": 14.40576503, "ECCENTRICITY": 0.0018782, "INCLINATION": 74.0244, "RA_OF_ASC_NODE": 236.2841, "ARG_OF_PERICENTER": 330.7165, "MEAN_ANOMALY": 187.9479, "EPHEMERIS_TYPE": 0, "CLASSIFICATION_TYPE": "U", "NORAD_CAT_ID": 34023, "ELEMENT_SET_NO": 999, "REV_AT_EPOCH": 88334, "BSTAR": 0.00020253, "MEAN_MOTION_DOT": 6.2e-06, "MEAN_MOTION_DDOT": 0}, "tle": {"line1": "1 34023U 93036HJ  25355.09328639  .00000620  00000+0  20253-3 0  9995", "line2": "2 34023  74.0244 236.2841 0018782 330.7165 187.9479 14.40576503883348"}}, "geometry": {"type": "Point", "coordinates": [-140.46845644205968, -44.21353511495782]}}, {"type": "Feature", "properties": {"norad_id": 34024, "name": "COSMOS 2251 DEB", "group": "cosmos-2251-debris", "lat": 17.106550228995822, "lon": 115.06781699738822, "alt_km": 789.079238004193, "timestamp": "2025-12-21T09:37:23.048391+00:00", "meta": {"OBJECT_NAME": "COSMOS 2251 DEB", "OBJECT_ID": "1993-036HK", "EPOCH": "2025-12-21T00:52:07.856256", "MEAN_MOTION": 14.35404362, "ECCENTRICITY": 0.0021423, "INCLINATION": 74.0467, "RA_OF_ASC_NODE": 300.7867, "ARG_OF_PERICENTER": 349.7357, "MEAN_ANOMALY": 88.1945, "EPHEMERIS_TYPE": 0, "CLASSIFICATION_TYPE": "U", "NORAD_CAT_ID": 34024, "ELEMENT_SET_NO": 999, "REV_AT_EPOCH": 88143, "BSTAR": 0.0001242, "MEAN_MOTION_DOT": 3.31e-06, "MEAN_MOTION_DDOT": 0}, "tle": {"line1": "1 34024U 93036HK  25355.03620204  .00000331  00000+0  12420-3 0  9999", "line2": "2 34024  74.0467 300.7867 0021423 349.7357  88.1945 14.35404362881435"}}, "geometry": {"type": "Point", "coordinates": [115.06781699738822, 17.106550228995822]}}, {"type": "Feature", "properties": {"norad_id": 34026, "name": "COSMOS 2251 DEB", "group": "cosmos-2251-debris", "lat": 23.487433290883562, "lon": -29.84436064780852, "alt_km": 1267.075821372604, "timestamp": "2025-12-21T09:37:23.048401+00:00", "meta": {"OBJECT_NAME": "COSMOS 2251 DEB", "OBJECT_ID": "1993-036HM", "EPOCH": "2025-12-21T04:19:15.685824", "MEAN_MOTION": 13.65318752, "ECCENTRICITY": 0.0349862, "INCLINATION": 73.7669, "RA_OF_ASC_NODE": 323.2498, "ARG_OF_PERICENTER": 191.9789, "MEAN_ANOMALY": 188.126, "EPHEMERIS_TYPE": 0, "CLASSIFICATION_TYPE": "U", "NORAD_CAT_ID": 34026, "ELEMENT_SET_NO": 999, "REV_AT_EPOCH": 83647, "BSTAR": 0.00033713, "MEAN_MOTION_DOT": 3.93e-06, "MEAN_MOTION_DDOT": 0}, "tle": {"line1": "1 34026U 93036HM  25355.18004266  .00000393  00000+0  33713-3 0  9997", "line2": "2 34026  73.7669 323.2498 0349862 191.9789 188.1260 13.65318752836477"}}, "geometry": {"type": "Point", "coordinates": [-29.84436064780852, 23.487433290883562]}}, {"type": "Feature", "properties": {"norad_id": 34028, "name": "COSMOS 2251 DEB", "group": "cosmos-2251-debris", "lat": 73.5712071767732, "lon": 52.641236151819264, "alt_km": 794.6515647305077, "timestamp": "2025-12-21T09:37:23.048411+00:00", "meta": {"OBJECT_NAME": "COSMOS 2251 DEB", "OBJECT_ID": "1993-036HP", "EPOCH": "2025-12-20T15:35:55.253184", "MEAN_MOTION": 13.20628876, "ECCENTRICITY": 0.0543534, "INCLINATION": 73.8835, "RA_OF_ASC_NODE": 335.1228, "ARG_OF_PERICENTER": 111.6096, "MEAN_ANOMALY": 8.353, "EPHEMERIS_TYPE": 0, "CLASSIFICATION_TYPE": "U", "NORAD_CAT_ID": 34028, "ELEMENT_SET_NO": 999, "REV_AT_EPOCH": 81112, "BSTAR": 0.00045906, "MEAN_MOTION_DOT": 3.89e-06, "MEAN_MOTION_DDOT": 0}, "tle": {"line1": "1 34028U 93036HP  25354.64994506  .00000389  00000+0  45906-3 0  9996", "line2": "2 34028  73.8835 335.1228 0543534 111.6096   8.3530 13.20628876811120"}}, "geometry": {"type": "Point", "coordinates": [52.641236151819264, 73.5712071767732]}}]}